CCSDS_OMM_VERS = 2.0
CREATION_DATE  = 
ORIGINATOR     = 

OBJECT_NAME    = KUIPER-00213
OBJECT_ID      = 2026-030P
CENTER_NAME    = EARTH
REF_FRAME      = TEME
TIME_SYSTEM    = UTC
MEAN_ELEMENT_THEORY = SGP/SGP4

EPOCH          = 2026-03-11T22:54:01.446624
MEAN_MOTION    = 15.32669280
ECCENTRICITY   = .00151963
INCLINATION    = 51.8810
RA_OF_ASC_NODE = 208.7306
ARG_OF_PERICENTER = 72.1606
MEAN_ANOMALY   = 288.1035

EPHEMERIS_TYPE = 0
CLASSIFICATION_TYPE = U
NORAD_CAT_ID   = 67777
ELEMENT_SET_NO = 999
REV_AT_EPOCH   = 543
BSTAR          = .72320843E-3
MEAN_MOTION_DOT = .2293E-3
MEAN_MOTION_DDOT = 0

CCSDS_OMM_VERS = 2.0
CREATION_DATE  = 
ORIGINATOR     = 

OBJECT_NAME    = KUIPER-00214
OBJECT_ID      = 2026-030Q
CENTER_NAME    = EARTH
REF_FRAME      = TEME
TIME_SYSTEM    = UTC
MEAN_ELEMENT_THEORY = SGP/SGP4

EPOCH          = 2026-03-11T16:42:03.034944
MEAN_MOTION    = 15.36917053
ECCENTRICITY   = .00007068
INCLINATION    = 51.8862
RA_OF_ASC_NODE = 209.2798
ARG_OF_PERICENTER = 287.2686
MEAN_ANOMALY   = 72.8223

EPHEMERIS_TYPE = 0
CLASSIFICATION_TYPE = U
NORAD_CAT_ID   = 67778
ELEMENT_SET_NO = 999
REV_AT_EPOCH   = 540
BSTAR          = .11834021E-2
MEAN_MOTION_DOT = .43244E-3
MEAN_MOTION_DDOT = 0

CCSDS_OMM_VERS = 2.0
CREATION_DATE  = 
ORIGINATOR     = 

OBJECT_NAME    = KUIPER-00215
OBJECT_ID      = 2026-030R
CENTER_NAME    = EARTH
REF_FRAME      = TEME
TIME_SYSTEM    = UTC
MEAN_ELEMENT_THEORY = SGP/SGP4

EPOCH          = 2026-03-11T17:39:47.569536
MEAN_MOTION    = 15.34588543
ECCENTRICITY   = .00105203
INCLINATION    = 51.8834
RA_OF_ASC_NODE = 209.5383
ARG_OF_PERICENTER = 66.2297
MEAN_ANOMALY   = 293.9791

EPHEMERIS_TYPE = 0
CLASSIFICATION_TYPE = U
NORAD_CAT_ID   = 67779
ELEMENT_SET_NO = 999
REV_AT_EPOCH   = 540
BSTAR          = .9528564E-3
MEAN_MOTION_DOT = .32228E-3
MEAN_MOTION_DDOT = 0

CCSDS_OMM_VERS = 2.0
CREATION_DATE  = 
ORIGINATOR     = 

OBJECT_NAME    = KUIPER-00218
OBJECT_ID      = 2026-030S
CENTER_NAME    = EARTH
REF_FRAME      = TEME
TIME_SYSTEM    = UTC
MEAN_ELEMENT_THEORY = SGP/SGP4

EPOCH          = 2026-03-11T18:55:29.309952
MEAN_MOTION    = 15.35311970
ECCENTRICITY   = .00070045
INCLINATION    = 51.8826
RA_OF_ASC_NODE = 209.1418
ARG_OF_PERICENTER = 56.5678
MEAN_ANOMALY   = 303.5977

EPHEMERIS_TYPE = 0
CLASSIFICATION_TYPE = U
NORAD_CAT_ID   = 67780
ELEMENT_SET_NO = 999
REV_AT_EPOCH   = 541
BSTAR          = .72909642E-3
MEAN_MOTION_DOT = .25103E-3
MEAN_MOTION_DDOT = 0

CCSDS_OMM_VERS = 2.0
CREATION_DATE  = 
ORIGINATOR     = 

OBJECT_NAME    = KUIPER-00220
OBJECT_ID      = 2026-030T
CENTER_NAME    = EARTH
REF_FRAME      = TEME
TIME_SYSTEM    = UTC
MEAN_ELEMENT_THEORY = SGP/SGP4

EPOCH          = 2026-03-11T17:33:01.799712
MEAN_MOTION    = 15.34893065
ECCENTRICITY   = .00087191
INCLINATION    = 51.8795
RA_OF_ASC_NODE = 209.4978
ARG_OF_PERICENTER = 62.0532
MEAN_ANOMALY   = 298.1335

EPHEMERIS_TYPE = 0
CLASSIFICATION_TYPE = U
NORAD_CAT_ID   = 67781
ELEMENT_SET_NO = 999
REV_AT_EPOCH   = 540
BSTAR          = .77111324E-3
MEAN_MOTION_DOT = .26229E-3
MEAN_MOTION_DDOT = 0

CCSDS_OMM_VERS = 2.0
CREATION_DATE  = 
ORIGINATOR     = 

OBJECT_NAME    = KUIPER-00222
OBJECT_ID      = 2026-030U
CENTER_NAME    = EARTH
REF_FRAME      = TEME
TIME_SYSTEM    = UTC
MEAN_ELEMENT_THEORY = SGP/SGP4

EPOCH          = 2026-03-11T21:27:19.992096
MEAN_MOTION    = 15.32259650
ECCENTRICITY   = .00186726
INCLINATION    = 51.8828
RA_OF_ASC_NODE = 209.0763
ARG_OF_PERICENTER = 72.3649
MEAN_ANOMALY   = 287.9373

EPHEMERIS_TYPE = 0
CLASSIFICATION_TYPE = U
NORAD_CAT_ID   = 67782
ELEMENT_SET_NO = 999
REV_AT_EPOCH   = 542
BSTAR          = .7554364E-3
MEAN_MOTION_DOT = .23704E-3
MEAN_MOTION_DDOT = 0

CCSDS_OMM_VERS = 2.0
CREATION_DATE  = 
ORIGINATOR     = 

OBJECT_NAME    = KUIPER-00223
OBJECT_ID      = 2026-030V
CENTER_NAME    = EARTH
REF_FRAME      = TEME
TIME_SYSTEM    = UTC
MEAN_ELEMENT_THEORY = SGP/SGP4

EPOCH          = 2026-03-11T17:46:37.129728
MEAN_MOTION    = 15.34231702
ECCENTRICITY   = .00127005
INCLINATION    = 51.8831
RA_OF_ASC_NODE = 209.5676
ARG_OF_PERICENTER = 65.4990
MEAN_ANOMALY   = 294.7318

EPHEMERIS_TYPE = 0
CLASSIFICATION_TYPE = U
NORAD_CAT_ID   = 67783
ELEMENT_SET_NO = 999
REV_AT_EPOCH   = 540
BSTAR          = .15542835E-2
MEAN_MOTION_DOT = .52394E-3
MEAN_MOTION_DDOT = 0

CCSDS_OMM_VERS = 2.0
CREATION_DATE  = 
ORIGINATOR     = 

OBJECT_NAME    = KUIPER-00225
OBJECT_ID      = 2026-030W
CENTER_NAME    = EARTH
REF_FRAME      = TEME
TIME_SYSTEM    = UTC
MEAN_ELEMENT_THEORY = SGP/SGP4

EPOCH          = 2026-03-11T20:11:55.712256
MEAN_MOTION    = 15.36053878
ECCENTRICITY   = .0004739
INCLINATION    = 51.8815
RA_OF_ASC_NODE = 208.7445
ARG_OF_PERICENTER = 43.3942
MEAN_ANOMALY   = 316.7417

EPHEMERIS_TYPE = 0
CLASSIFICATION_TYPE = U
NORAD_CAT_ID   = 67784
ELEMENT_SET_NO = 999
REV_AT_EPOCH   = 542
BSTAR          = .10238266E-2
MEAN_MOTION_DOT = .36304E-3
MEAN_MOTION_DDOT = 0

CCSDS_OMM_VERS = 2.0
CREATION_DATE  = 
ORIGINATOR     = 

OBJECT_NAME    = KUIPER-00226
OBJECT_ID      = 2026-030X
CENTER_NAME    = EARTH
REF_FRAME      = TEME
TIME_SYSTEM    = UTC
MEAN_ELEMENT_THEORY = SGP/SGP4

EPOCH          = 2026-03-11T20:18:37.111104
MEAN_MOTION    = 15.30619381
ECCENTRICITY   = .00206172
INCLINATION    = 51.8816
RA_OF_ASC_NODE = 209.5014
ARG_OF_PERICENTER = 77.5393
MEAN_ANOMALY   = 282.7896

EPHEMERIS_TYPE = 0
CLASSIFICATION_TYPE = U
NORAD_CAT_ID   = 67785
ELEMENT_SET_NO = 999
REV_AT_EPOCH   = 541
BSTAR          = .1336806E-2
MEAN_MOTION_DOT = .40249E-3
MEAN_MOTION_DDOT = 0

CCSDS_OMM_VERS = 2.0
CREATION_DATE  = 
ORIGINATOR     = 

OBJECT_NAME    = KUIPER-00259
OBJECT_ID      = 2026-030Y
CENTER_NAME    = EARTH
REF_FRAME      = TEME
TIME_SYSTEM    = UTC
MEAN_ELEMENT_THEORY = SGP/SGP4

EPOCH          = 2026-03-11T20:32:47.356224
MEAN_MOTION    = 15.35208805
ECCENTRICITY   = .00085012
INCLINATION    = 51.8817
RA_OF_ASC_NODE = 208.8397
ARG_OF_PERICENTER = 50.9174
MEAN_ANOMALY   = 309.2566

EPHEMERIS_TYPE = 0
CLASSIFICATION_TYPE = U
NORAD_CAT_ID   = 67786
ELEMENT_SET_NO = 999
REV_AT_EPOCH   = 542
BSTAR          = .97223602E-3
MEAN_MOTION_DOT = .3354E-3
MEAN_MOTION_DDOT = 0

CCSDS_OMM_VERS = 2.0
CREATION_DATE  = 
ORIGINATOR     = 

OBJECT_NAME    = KUIPER-00260
OBJECT_ID      = 2026-030Z
CENTER_NAME    = EARTH
REF_FRAME      = TEME
TIME_SYSTEM    = UTC
MEAN_ELEMENT_THEORY = SGP/SGP4

EPOCH          = 2026-03-11T21:31:02.574912
MEAN_MOTION    = 15.36654196
ECCENTRICITY   = .0001591
INCLINATION    = 51.8802
RA_OF_ASC_NODE = 208.3639
ARG_OF_PERICENTER = 33.3409
MEAN_ANOMALY   = 326.7677

EPHEMERIS_TYPE = 0
CLASSIFICATION_TYPE = U
NORAD_CAT_ID   = 67787
ELEMENT_SET_NO = 999
REV_AT_EPOCH   = 534
BSTAR          = .10060514E-2
MEAN_MOTION_DOT = .36359E-3
MEAN_MOTION_DDOT = 0

CCSDS_OMM_VERS = 2.0
CREATION_DATE  = 
ORIGINATOR     = 

OBJECT_NAME    = KUIPER-00262
OBJECT_ID      = 2026-030AA
CENTER_NAME    = EARTH
REF_FRAME      = TEME
TIME_SYSTEM    = UTC
MEAN_ELEMENT_THEORY = SGP/SGP4

EPOCH          = 2026-03-11T21:24:41.700384
MEAN_MOTION    = 15.36846545
ECCENTRICITY   = .00007865
INCLINATION    = 51.8820
RA_OF_ASC_NODE = 208.3397
ARG_OF_PERICENTER = 9.3493
MEAN_ANOMALY   = 350.7509

EPHEMERIS_TYPE = 0
CLASSIFICATION_TYPE = U
NORAD_CAT_ID   = 67788
ELEMENT_SET_NO = 999
REV_AT_EPOCH   = 543
BSTAR          = .89864549E-3
MEAN_MOTION_DOT = .32623E-3
MEAN_MOTION_DDOT = 0

