KUIPER-00213            
1 67777U 26030P   26070.95418341  .00022930  00000+0  72321-3 0  9998
2 67777  51.8810 208.7306 0015196  72.1606 288.1035 15.32669280  5430
KUIPER-00214            
1 67778U 26030Q   26070.69586846  .00043244  00000+0  11834-2 0  9998
2 67778  51.8862 209.2798 0000706 287.2686  72.8223 15.36917053  5409
KUIPER-00215            
1 67779U 26030R   26070.73596724  .00032228  00000+0  95286-3 0  9994
2 67779  51.8834 209.5383 0010520  66.2297 293.9791 15.34588543  5402
KUIPER-00218            
1 67780U 26030S   26070.78853368  .00025103  00000+0  72910-3 0  9994
2 67780  51.8826 209.1418 0007004  56.5678 303.5977 15.35311970  5412
KUIPER-00220            
1 67781U 26030T   26070.73127083  .00026229  00000+0  77111-3 0  9996
2 67781  51.8795 209.4978 0008719  62.0532 298.1335 15.34893065  5402
KUIPER-00222            
1 67782U 26030U   26070.89398139  .00023704  00000+0  75544-3 0  9999
2 67782  51.8828 209.0763 0018672  72.3649 287.9373 15.32259650  5424
KUIPER-00223            
1 67783U 26030V   26070.74070752  .00052394  00000+0  15543-2 0  9991
2 67783  51.8831 209.5676 0012700  65.4990 294.7318 15.34231702  5408
KUIPER-00225            
1 67784U 26030W   26070.84161704  .00036304  00000+0  10238-2 0  9990
2 67784  51.8815 208.7445 0004739  43.3942 316.7417 15.36053878  5426
KUIPER-00226            
1 67785U 26030X   26070.84626286  .00040249  00000+0  13368-2 0  9992
2 67785  51.8816 209.5014 0020617  77.5393 282.7896 15.30619381  5414
KUIPER-00259            
1 67786U 26030Y   26070.85610366  .00033540  00000+0  97224-3 0  9996
2 67786  51.8817 208.8397 0008501  50.9174 309.2566 15.35208805  5422
KUIPER-00260            
1 67787U 26030Z   26070.89655758  .00036359  00000+0  10061-2 0  9999
2 67787  51.8802 208.3639 0001591  33.3409 326.7677 15.36654196  5346
KUIPER-00262            
1 67788U 26030AA  26070.89214931  .00032623  00000+0  89865-3 0  9993
2 67788  51.8820 208.3397 0000786   9.3493 350.7509 15.36846545  5431
